NORAD_CAT_ID,OBJECT_NAME,OBJECT_TYPE,EPOCH,MEAN_MOTION,ECCENTRICITY,INCLINATION,RA_OF_ASC_NODE,ARG_OF_PERICENTER,MEAN_ANOMALY,BSTAR,MEAN_MOTION_DOT,MEAN_MOTION_DDOT,TLE_LINE0,TLE_LINE1,TLE_LINE2,SEMIMAJOR_AXIS,PERIOD,APOGEE,PERIGEE,DECAYED
53417.0,STARLINK-4484,PAYLOAD,2024-04-02 04:06:09,15.08836406,0.0001457,53.2175,45.8073,103.7768,256.3387,-0.00012387,-2.259e-05,0.0,0 STARLINK-4484,1 53417U 22097AF  24093.17094301 -.00002259  00000-0 -12387-3 0  9997,2 53417  53.2175  45.8073 0001457 103.7768 256.3387 15.08836406 91501,6917.891,95.438,540.764,538.748,0.0
53417.0,STARLINK-4484,PAYLOAD,2024-04-02 13:38:28,15.08845358,0.0001542,53.2189,44.0225,96.0263,264.0905,0.00018111,2.596e-05,0.0,0 STARLINK-4484,1 53417U 22097AF  24093.56838151  .00002596  00000-0  18111-3 0  9992,2 53417  53.2189  44.0225 0001542  96.0263 264.0905 15.08845358 92021,6917.864,95.437,540.796,538.662,0.0
53417.0,STARLINK-4484,PAYLOAD,2024-04-03 02:21:34,15.08832096,0.000185,53.2198,41.645,94.5765,265.5439,-9.6817e-05,-1.828e-05,0.0,0 STARLINK-4484,1 53417U 22097AF  24094.09831044 -.00001828  00000-0 -96817-4 0  9994,2 53417  53.2198  41.6450 0001850  94.5765 265.5439 15.08832096 91646,6917.905,95.438,541.049,538.49,0.0
53417.0,STARLINK-4484,PAYLOAD,2024-04-03 13:29:15,15.08845456,0.0001553,53.2185,39.5614,86.6143,273.5026,0.0001467,2.048e-05,0.0,0 STARLINK-4484,1 53417U 22097AF  24094.56198610  .00002048  00000-0  14670-3 0  9990,2 53417  53.2185  39.5614 0001553  86.6143 273.5026 15.08845456 92176,6917.864,95.437,540.803,538.654,0.0
53417.0,STARLINK-4484,PAYLOAD,2024-04-04 05:23:07,15.08837814,0.0001469,53.2169,36.588,94.5823,265.5337,0.00013632,1.882e-05,0.0,0 STARLINK-4484,1 53417U 22097AF  24095.22439089  .00001882  00000-0  13632-3 0  9994,2 53417  53.2169  36.5880 0001469  94.5823 265.5337 15.08837814 91814,6917.887,95.438,540.768,538.736,0.0
53417.0,STARLINK-4484,PAYLOAD,2024-04-04 13:20:02,15.08848193,0.0001418,53.2171,35.101,94.7524,265.363,0.00025098,3.71e-05,0.0,0 STARLINK-4484,1 53417U 22097AF  24095.55558626  .00003710  00000-0  25098-3 0  9990,2 53417  53.2171  35.1010 0001418  94.7524 265.3630 15.08848193 92324,6917.855,95.437,540.701,538.739,0.0
53417.0,STARLINK-4484,PAYLOAD,2024-04-05 02:03:08,15.08839445,0.0001476,53.2183,32.7221,96.5553,263.5607,0.00017263,2.46e-05,0.0,0 STARLINK-4484,1 53417U 22097AF  24096.08551142  .00002460  00000-0  17263-3 0  9991,2 53417  53.2183  32.7221 0001476  96.5553 263.5607 15.08839445 91941,6917.882,95.438,540.768,538.726,0.0
53417.0,STARLINK-4484,PAYLOAD,2024-04-05 13:10:49,15.08852065,0.0001498,53.2188,30.6397,92.4647,267.6517,0.00021737,3.174e-05,0.0,0 STARLINK-4484,1 53417U 22097AF  24096.54918320  .00003174  00000-0  21737-3 0  9991,2 53417  53.2188  30.6397 0001498  92.4647 267.6517 15.08852065 92017,6917.844,95.437,540.745,538.672,0.0
53417.0,STARLINK-4484,PAYLOAD,2024-04-06 05:04:41,15.08839367,0.000141,53.2191,27.6661,99.8771,260.2381,1.6999e-05,-1.7e-07,0.0,0 STARLINK-4484,1 53417U 22097AF  24097.21159012 -.00000017  00000-0  16999-4 0  9990,2 53417  53.2191  27.6661 0001410  99.8771 260.2381 15.08839367 92113,6917.882,95.438,540.723,538.772,0.0
53417.0,STARLINK-4484,PAYLOAD,2024-04-06 22:33:55,15.08844521,0.000137,53.2184,24.3948,96.2504,263.8644,0.00018799,2.706e-05,0.0,0 STARLINK-4484,1 53417U 22097AF  24097.94022746  .00002706  00000-0  18799-3 0  9998,2 53417  53.2184  24.3948 0001370  96.2504 263.8644 15.08844521 92688,6917.867,95.437,540.679,538.784,0.0
53417.0,STARLINK-4484,PAYLOAD,2024-04-07 04:55:27,15.08858159,0.0001334,53.2195,23.2049,111.3696,248.7438,-0.00033711,-5.652e-05,0.0,0 STARLINK-4484,1 53417U 22097AF  24098.20517858 -.00005652  00000-0 -33711-3 0  9997,2 53417  53.2195  23.2049 0001334 111.3696 248.7438 15.08858159 92721,6917.825,95.436,540.613,538.767,0.0
53417.0,STARLINK-4484,PAYLOAD,2024-04-07 19:13:56,15.08841282,0.000132,53.2187,20.5295,93.3102,266.8041,0.00019807,2.866e-05,0.0,0 STARLINK-4484,1 53417U 22097AF  24098.80134961  .00002866  00000-0  19807-3 0  9995,2 53417  53.2187  20.5295 0001320  93.3102 266.8041 15.08841282 92350,6917.876,95.437,540.655,538.828,0.0
53417.0,STARLINK-4484,PAYLOAD,2024-04-07 22:24:42,15.0883798,0.0001321,53.2189,19.9347,93.2699,266.8444,0.00011052,1.471e-05,0.0,0 STARLINK-4484,1 53417U 22097AF  24098.93383091  .00001471  00000-0  11052-3 0  9994,2 53417  53.2189  19.9347 0001321  93.2699 266.8444 15.08837980 92833,6917.887,95.438,540.665,538.838,0.0
53417.0,STARLINK-4484,PAYLOAD,2024-04-08 11:07:47,15.08845101,0.0001288,53.2188,17.56,87.3934,272.7206,0.00011486,1.541e-05,0.0,0 STARLINK-4484,1 53417U 22097AF  24099.46374802  .00001541  00000-0  11486-3 0  9992,2 53417  53.2188  17.5600 0001288  87.3934 272.7206 15.08845101 92911,6917.865,95.437,540.621,538.839,0.0
53417.0,STARLINK-4484,PAYLOAD,2024-04-08 23:50:53,15.0883711,0.0001488,53.2192,15.1822,96.124,263.9922,1.0858e-05,-1.15e-06,0.0,0 STARLINK-4484,1 53417U 22097AF  24099.99367267 -.00000115  00000-0  10858-4 0  9997,2 53417  53.2192  15.1822 0001488  96.1240 263.9922 15.08837110 92992,6917.889,95.438,540.784,538.725,0.0
53417.0,STARLINK-4484,PAYLOAD,2024-04-09 04:37:02,15.08839058,0.0001463,53.2196,14.2886,92.4706,267.6454,2.4918e-05,1.09e-06,0.0,0 STARLINK-4484,1 53417U 22097AF  24100.19239165  .00000109  00000-0  24918-4 0  9991,2 53417  53.2196  14.2886 0001463  92.4706 267.6454 15.08839058 92562,6917.883,95.438,540.76,538.736,0.0
53417.0,STARLINK-4484,PAYLOAD,2024-04-09 10:58:34,15.08847708,0.0001453,53.2208,13.0997,94.3796,265.7363,0.00010194,1.335e-05,0.0,0 STARLINK-4484,1 53417U 22097AF  24100.45734653  .00001335  00000-0  10194-3 0  9994,2 53417  53.2208  13.0997 0001453  94.3796 265.7363 15.08847708 92609,6917.857,95.437,540.727,538.717,0.0
53417.0,STARLINK-4484,PAYLOAD,2024-04-10 10:49:21,15.08829675,0.0001449,53.2194,8.6391,90.9515,269.1643,-0.00024049,-4.112e-05,0.0,0 STARLINK-4484,1 53417U 22097AF  24101.45094389 -.00004112  00000-0 -24049-3 0  9992,2 53417  53.2194   8.6391 0001449  90.9515 269.1643 15.08829675 92755,6917.912,95.438,540.779,538.775,0.0
53417.0,STARLINK-4484,PAYLOAD,2024-04-10 21:57:04,15.08821902,0.0001477,53.2199,6.5571,89.8444,270.2717,-0.00023816,-4.074e-05,0.0,0 STARLINK-4484,1 53417U 22097AF  24101.91463114 -.00004074  00000-0 -23816-3 0  9997,2 53417  53.2199   6.5571 0001477  89.8444 270.2717 15.08821902 93285,6917.936,95.439,540.822,538.779,0.0
53417.0,STARLINK-4484,PAYLOAD,2024-04-11 10:40:08,15.08837472,0.0001509,53.2195,4.1768,82.682,277.4343,-6.6525e-05,-1.346e-05,0.0,0 STARLINK-4484,1 53417U 22097AF  24102.44454629 -.00001346  00000-0 -66525-4 0  9991,2 53417  53.2195   4.1768 0001509  82.6820 277.4343 15.08837472 92909,6917.888,95.438,540.797,538.709,0.0
53417.0,STARLINK-4484,PAYLOAD,2024-04-11 21:47:48,15.08883452,0.0001686,53.2198,2.0953,69.5819,290.5355,-0.0016556,-0.00026572,0.0,0 STARLINK-4484,1 53417U 22097AF  24102.90819518 -.00026572  00000-0 -16556-2 0  9999,2 53417  53.2198   2.0953 0001686  69.5819 290.5355 15.08883452 93430,6917.748,95.435,540.779,538.446,0.0
53417.0,STARLINK-4484,PAYLOAD,2024-04-12 00:58:37,15.08831395,0.0001456,53.2182,1.5017,87.1316,272.9843,0.00043883,6.701e-05,0.0,0 STARLINK-4484,1 53417U 22097AF  24103.04071531  .00006701  00000-0  43883-3 0  9994,2 53417  53.2182   1.5017 0001456  87.1316 272.9843 15.08831395 92996,6917.907,95.438,540.779,538.764,0.0
53417.0,STARLINK-4484,PAYLOAD,2024-04-12 21:38:38,15.08846161,0.0001435,53.2179,357.636,91.3677,268.7479,0.00049044,7.527e-05,0.0,0 STARLINK-4484,1 53417U 22097AF  24103.90183523  .00007527  00000-0  49044-3 0  9996,2 53417  53.2179 357.6360 0001435  91.3677 268.7479 15.08846161 93583,6917.862,95.437,540.719,538.734,0.0
53417.0,STARLINK-4484,PAYLOAD,2024-04-12 23:14:01,15.08847132,0.0001387,53.2176,357.3391,85.7314,274.3836,0.00047929,7.35e-05,0.0,0 STARLINK-4484,1 53417U 22097AF  24103.96807482  .00007350  00000-0  47929-3 0  9993,2 53417  53.2176 357.3391 0001387  85.7314 274.3836 15.08847132 93592,6917.859,95.437,540.683,538.764,0.0
53417.0,STARLINK-4484,PAYLOAD,2024-04-13 21:29:25,15.08842982,0.0001372,53.2172,353.1753,85.9383,274.1766,0.00017662,2.524e-05,0.0,0 STARLINK-4484,1 53417U 22097AF  24104.89543531  .00002524  00000-0  17662-3 0  9997,2 53417  53.2172 353.1753 0001372  85.9383 274.1766 15.08842982 93279,6917.871,95.437,540.685,538.787,0.0
53417.0,STARLINK-4484,PAYLOAD,2024-04-14 21:20:12,15.08841676,0.0001345,53.2176,348.7116,100.2557,259.8586,0.00011996,1.622e-05,0.0,0 STARLINK-4484,1 53417U 22097AF  24105.88903548  .00001622  00000-0  11996-3 0  9997,2 53417  53.2176 348.7116 0001345 100.2557 259.8586 15.08841676 93886,6917.875,95.437,540.671,538.81,0.0
53417.0,STARLINK-4484,PAYLOAD,2024-04-15 02:06:22,15.08842285,0.000137,53.2178,347.8196,101.892,258.2226,0.00011233,1.5e-05,0.0,0 STARLINK-4484,1 53417U 22097AF  24106.08775478  .00001500  00000-0  11233-3 0  9998,2 53417  53.2178 347.8196 0001370 101.8920 258.2226 15.08842285 93459,6917.873,95.437,540.686,538.791,0.0
53417.0,STARLINK-4484,PAYLOAD,2024-04-15 21:10:59,15.08839428,0.0001405,53.2179,344.2508,103.5219,256.593,9.7789e-05,1.269e-05,0.0,0 STARLINK-4484,1 53417U 22097AF  24106.88263668  .00001269  00000-0  97789-4 0  9992,2 53417  53.2179 344.2508 0001405 103.5219 256.5930 15.08839428 94030,6917.882,95.438,540.719,538.775,0.0
53417.0,STARLINK-4484,PAYLOAD,2024-04-15 22:46:23,15.08838404,0.0001335,53.218,343.9535,96.8461,263.2683,7.6556e-05,9.31e-06,0.0,0 STARLINK-4484,1 53417U 22097AF  24106.94887743  .00000931  00000-0  76556-4 0  9999,2 53417  53.2180 343.9535 0001335  96.8461 263.2683 15.08838404 93585,6917.885,95.438,540.674,538.827,0.0
53417.0,STARLINK-4484,PAYLOAD,2024-04-16 08:18:41,15.08854127,0.0001396,53.2193,342.173,106.7209,253.3937,0.00027861,4.151e-05,0.0,0 STARLINK-4484,1 53417U 22097AF  24107.34630894  .00004151  00000-0  27861-3 0  9999,2 53417  53.2193 342.1730 0001396 106.7209 253.3937 15.08854127 93644,6917.837,95.437,540.668,538.736,0.0
